start=new Date('2022-10-17T00:00:00.000Z').valueOf();
sats=[{"CENTER_NAME":"EARTH","REV_AT_EPOCH":"130","COUNTRY_CODE":"US","MEAN_MOTION_DDOT":"0.0000000000000","MEAN_ANOMALY":"294.5080","REF_FRAME":"TEME","RCS_SIZE":"LARGE","OBJECT_ID":"2022-101G","TIME_SYSTEM":"UTC","TLE_LINE1":"1 53533U 22101G   22289.91667824 -.00034355  00000-0 -21494-2 0  9995","FILE":"3617955","ELEMENT_SET_NO":"999","NORAD_CAT_ID":"53533","CLASSIFICATION_TYPE":"U","SITE":"AFETR","SEMIMAJOR_AXIS":"6917.809","ECCENTRICITY":"0.00015960","APOAPSIS":"540.778","MEAN_ELEMENT_THEORY":"SGP4","TLE_LINE2":"2 53533  53.2171 239.6637 0001596  62.6178 294.5080 15.08863517  1303","PERIAPSIS":"538.569","OBJECT_TYPE":"PAYLOAD","EPHEMERIS_TYPE":"0","MEAN_MOTION_DOT":"-0.00034355","MEAN_MOTION":"15.08863517","DECAY_DATE":null,"LAUNCH_DATE":"2022-08-19","INCLINATION":"53.2171","OBJECT_NAME":"STARLINK-4493","GP_ID":"215350429","PERIOD":"95.436","RA_OF_ASC_NODE":"239.6637","BSTAR":"-0.00214940000000","ARG_OF_PERICENTER":"62.6178","EPOCH":"2022-10-16T22:00:00.999936"},{"EPHEMERIS_TYPE":"0","OBJECT_TYPE":"PAYLOAD","PERIAPSIS":"538.772","TLE_LINE2":"2 53534  53.2175 239.6624 0001458  57.5875   4.7091 15.08828630  1308","LAUNCH_DATE":"2022-08-19","DECAY_DATE":null,"MEAN_MOTION":"15.08828630","MEAN_MOTION_DOT":"0.00015385","PERIOD":"95.438","OBJECT_NAME":"STARLINK-4488","GP_ID":"215349429","INCLINATION":"53.2175","EPOCH":"2022-10-16T22:00:00.999936","ARG_OF_PERICENTER":"57.5875","BSTAR":"0.00098293000000","RA_OF_ASC_NODE":"239.6624","COUNTRY_CODE":"US","REV_AT_EPOCH":"130","CENTER_NAME":"EARTH","TIME_SYSTEM":"UTC","OBJECT_ID":"2022-101H","RCS_SIZE":"LARGE","REF_FRAME":"TEME","MEAN_ANOMALY":"4.7091","MEAN_MOTION_DDOT":"0.0000000000000","SITE":"AFETR","SEMIMAJOR_AXIS":"6917.915","CLASSIFICATION_TYPE":"U","NORAD_CAT_ID":"53534","ELEMENT_SET_NO":"999","FILE":"3617955","TLE_LINE1":"1 53534U 22101H   22289.91667824  .00015385  00000-0  98293-3 0  9998","MEAN_ELEMENT_THEORY":"SGP4","APOAPSIS":"540.789","ECCENTRICITY":"0.00014580"},{"TLE_LINE1":"1 53535U 22101J   22289.91667824 -.00011852  00000-0 -72739-3 0  9993","FILE":"3617955","ELEMENT_SET_NO":"999","NORAD_CAT_ID":"53535","CLASSIFICATION_TYPE":"U","SITE":"AFETR","SEMIMAJOR_AXIS":"6917.817","ECCENTRICITY":"0.00014150","APOAPSIS":"540.660","MEAN_ELEMENT_THEORY":"SGP4","CENTER_NAME":"EARTH","REV_AT_EPOCH":"130","COUNTRY_CODE":"US","MEAN_MOTION_DDOT":"0.0000000000000","MEAN_ANOMALY":"315.7322","RCS_SIZE":"LARGE","REF_FRAME":"TEME","OBJECT_ID":"2022-101J","TIME_SYSTEM":"UTC","INCLINATION":"53.2170","OBJECT_NAME":"STARLINK-4138","GP_ID":"215350262","PERIOD":"95.436","RA_OF_ASC_NODE":"239.6624","ARG_OF_PERICENTER":"66.5294","BSTAR":"-0.00072739000000","EPOCH":"2022-10-16T22:00:00.999936","TLE_LINE2":"2 53535  53.2170 239.6624 0001415  66.5294 315.7322 15.08860878  1304","PERIAPSIS":"538.703","OBJECT_TYPE":"PAYLOAD","EPHEMERIS_TYPE":"0","MEAN_MOTION_DOT":"-0.00011852","MEAN_MOTION":"15.08860878","DECAY_DATE":null,"LAUNCH_DATE":"2022-08-19"},{"EPHEMERIS_TYPE":"0","OBJECT_TYPE":"PAYLOAD","PERIAPSIS":"454.783","TLE_LINE2":"2 53536  53.2175 229.9213 0001298  60.5285   8.7367 15.36770129  1307","LAUNCH_DATE":"2022-08-19","DECAY_DATE":null,"MEAN_MOTION":"15.36770129","MEAN_MOTION_DOT":"-0.01069254","PERIOD":"93.703","GP_ID":"215349262","OBJECT_NAME":"STARLINK-4053","INCLINATION":"53.2175","EPOCH":"2022-10-16T22:00:00.999936","BSTAR":"-0.03195000000000","ARG_OF_PERICENTER":"60.5285","RA_OF_ASC_NODE":"229.9213","COUNTRY_CODE":"US","REV_AT_EPOCH":"130","CENTER_NAME":"EARTH","TIME_SYSTEM":"UTC","OBJECT_ID":"2022-101K","RCS_SIZE":"LARGE","REF_FRAME":"TEME","MEAN_ANOMALY":"8.7367","MEAN_MOTION_DDOT":"0.0000000000000","SITE":"AFETR","SEMIMAJOR_AXIS":"6833.805","CLASSIFICATION_TYPE":"U","NORAD_CAT_ID":"53536","ELEMENT_SET_NO":"999","FILE":"3617955","TLE_LINE1":"1 53536U 22101K   22289.91667824 -.01069254  00000-0 -31950-1 0  9992","MEAN_ELEMENT_THEORY":"SGP4","APOAPSIS":"456.557","ECCENTRICITY":"0.00012980"},{"NORAD_CAT_ID":"53537","ELEMENT_SET_NO":"999","FILE":"3617955","TLE_LINE1":"1 53537U 22101L   22289.91667824  .00016224  00000-0  10350-2 0  9991","SEMIMAJOR_AXIS":"6917.869","SITE":"AFETR","CLASSIFICATION_TYPE":"U","APOAPSIS":"540.856","ECCENTRICITY":"0.00016220","MEAN_ELEMENT_THEORY":"SGP4","CENTER_NAME":"EARTH","COUNTRY_CODE":"US","REV_AT_EPOCH":"130","REF_FRAME":"TEME","RCS_SIZE":"LARGE","MEAN_ANOMALY":"301.1521","MEAN_MOTION_DDOT":"0.0000000000000","TIME_SYSTEM":"UTC","OBJECT_ID":"2022-101L","INCLINATION":"53.2167","PERIOD":"95.437","GP_ID":"215350180","OBJECT_NAME":"STARLINK-4120","RA_OF_ASC_NODE":"239.6624","EPOCH":"2022-10-16T22:00:00.999936","BSTAR":"0.00103500000000","ARG_OF_PERICENTER":"61.0215","TLE_LINE2":"2 53537  53.2167 239.6624 0001622  61.0215 301.1521 15.08843621  1302","EPHEMERIS_TYPE":"0","OBJECT_TYPE":"PAYLOAD","PERIAPSIS":"538.612","MEAN_MOTION":"15.08843621","MEAN_MOTION_DOT":"0.00016224","LAUNCH_DATE":"2022-08-19","DECAY_DATE":null},{"TLE_LINE2":"2 53538  53.2177 230.4497 0001320  89.0549  53.4990 15.30016814  1304","OBJECT_TYPE":"PAYLOAD","PERIAPSIS":"474.859","EPHEMERIS_TYPE":"0","MEAN_MOTION_DOT":"-0.01065407","MEAN_MOTION":"15.30016814","DECAY_DATE":null,"LAUNCH_DATE":"2022-08-19","INCLINATION":"53.2177","OBJECT_NAME":"STARLINK-4118","GP_ID":"215349846","PERIOD":"94.117","RA_OF_ASC_NODE":"230.4497","BSTAR":"-0.03944800000000","ARG_OF_PERICENTER":"89.0549","EPOCH":"2022-10-16T22:00:00.999936","CENTER_NAME":"EARTH","REV_AT_EPOCH":"130","COUNTRY_CODE":"US","MEAN_MOTION_DDOT":"0.0000000000000","MEAN_ANOMALY":"53.4990","REF_FRAME":"TEME","RCS_SIZE":"LARGE","OBJECT_ID":"2022-101M","TIME_SYSTEM":"UTC","TLE_LINE1":"1 53538U 22101M   22289.91667824 -.01065407  00000-0 -39448-1 0  9990","FILE":"3617955","ELEMENT_SET_NO":"999","NORAD_CAT_ID":"53538","CLASSIFICATION_TYPE":"U","SITE":"AFETR","SEMIMAJOR_AXIS":"6853.899","APOAPSIS":"476.669","ECCENTRICITY":"0.00013200","MEAN_ELEMENT_THEORY":"SGP4"},{"MEAN_ELEMENT_THEORY":"SGP4","ECCENTRICITY":"0.00014910","APOAPSIS":"540.783","CLASSIFICATION_TYPE":"U","SITE":"AFETR","SEMIMAJOR_AXIS":"6917.886","FILE":"3617955","TLE_LINE1":"1 53539U 22101N   22289.91667824  .00015823  00000-0  10101-2 0  9991","ELEMENT_SET_NO":"999","NORAD_CAT_ID":"53539","OBJECT_ID":"2022-101N","TIME_SYSTEM":"UTC","MEAN_ANOMALY":"332.9956","MEAN_MOTION_DDOT":"0.0000000000000","RCS_SIZE":"LARGE","REF_FRAME":"TEME","REV_AT_EPOCH":"130","COUNTRY_CODE":"US","CENTER_NAME":"EARTH","BSTAR":"0.00101010000000","ARG_OF_PERICENTER":"69.2759","EPOCH":"2022-10-16T22:00:00.999936","RA_OF_ASC_NODE":"239.6617","GP_ID":"215350014","OBJECT_NAME":"STARLINK-4123","PERIOD":"95.438","INCLINATION":"53.2171","DECAY_DATE":null,"LAUNCH_DATE":"2022-08-19","MEAN_MOTION_DOT":"0.00015823","MEAN_MOTION":"15.08838090","PERIAPSIS":"538.720","OBJECT_TYPE":"PAYLOAD","EPHEMERIS_TYPE":"0","TLE_LINE2":"2 53539  53.2171 239.6617 0001491  69.2759 332.9956 15.08838090  1306"},{"OBJECT_ID":"2022-101P","TIME_SYSTEM":"UTC","MEAN_ANOMALY":"78.2082","MEAN_MOTION_DDOT":"0.0000000000000","REF_FRAME":"TEME","RCS_SIZE":"LARGE","REV_AT_EPOCH":"130","COUNTRY_CODE":"US","CENTER_NAME":"EARTH","MEAN_ELEMENT_THEORY":"SGP4","ECCENTRICITY":"0.00013700","APOAPSIS":"475.860","CLASSIFICATION_TYPE":"U","SITE":"AFETR","SEMIMAJOR_AXIS":"6853.057","FILE":"3617955","TLE_LINE1":"1 53540U 22101P   22289.91667824 -.01065297  00000-0 -39098-1 0  9991","ELEMENT_SET_NO":"999","NORAD_CAT_ID":"53540","DECAY_DATE":null,"LAUNCH_DATE":"2022-08-19","MEAN_MOTION_DOT":"-0.01065297","MEAN_MOTION":"15.30298979","PERIAPSIS":"473.983","OBJECT_TYPE":"PAYLOAD","EPHEMERIS_TYPE":"0","TLE_LINE2":"2 53540  53.2177 230.4569 0001370  74.8347  78.2082 15.30298979  1301","BSTAR":"-0.03909800000000","ARG_OF_PERICENTER":"74.8347","EPOCH":"2022-10-16T22:00:00.999936","RA_OF_ASC_NODE":"230.4569","OBJECT_NAME":"STARLINK-4486","GP_ID":"215349680","PERIOD":"94.099","INCLINATION":"53.2177"},{"MEAN_MOTION_DOT":"0.00004069","MEAN_MOTION":"15.08851234","DECAY_DATE":null,"LAUNCH_DATE":"2022-08-19","TLE_LINE2":"2 53541  53.2182 239.6574 0001593  65.2724  17.0131 15.08851234  1305","OBJECT_TYPE":"PAYLOAD","PERIAPSIS":"538.609","EPHEMERIS_TYPE":"0","RA_OF_ASC_NODE":"239.6574","ARG_OF_PERICENTER":"65.2724","BSTAR":"0.00027350000000","EPOCH":"2022-10-16T22:00:00.999936","INCLINATION":"53.2182","OBJECT_NAME":"STARLINK-4485","GP_ID":"215350430","PERIOD":"95.437","MEAN_ANOMALY":"17.0131","MEAN_MOTION_DDOT":"0.0000000000000","REF_FRAME":"TEME","RCS_SIZE":"LARGE","OBJECT_ID":"2022-101Q","TIME_SYSTEM":"UTC","CENTER_NAME":"EARTH","REV_AT_EPOCH":"130","COUNTRY_CODE":"US","ECCENTRICITY":"0.00015930","APOAPSIS":"540.813","MEAN_ELEMENT_THEORY":"SGP4","FILE":"3617955","TLE_LINE1":"1 53541U 22101Q   22289.91667824  .00004069  00000-0  27350-3 0  9999","ELEMENT_SET_NO":"999","NORAD_CAT_ID":"53541","CLASSIFICATION_TYPE":"U","SITE":"AFETR","SEMIMAJOR_AXIS":"6917.846"},{"MEAN_MOTION":"15.30889373","MEAN_MOTION_DOT":"-0.01065212","LAUNCH_DATE":"2022-08-19","DECAY_DATE":null,"TLE_LINE2":"2 53542  53.2178 230.4729 0001403  71.8924 100.8461 15.30889373  1304","EPHEMERIS_TYPE":"0","OBJECT_TYPE":"PAYLOAD","PERIAPSIS":"472.198","RA_OF_ASC_NODE":"230.4729","EPOCH":"2022-10-16T22:00:00.999936","BSTAR":"-0.03838000000000","ARG_OF_PERICENTER":"71.8924","INCLINATION":"53.2178","PERIOD":"94.063","GP_ID":"215349430","OBJECT_NAME":"STARLINK-4489","REF_FRAME":"TEME","RCS_SIZE":"LARGE","MEAN_ANOMALY":"100.8461","MEAN_MOTION_DDOT":"0.0000000000000","TIME_SYSTEM":"UTC","OBJECT_ID":"2022-101R","CENTER_NAME":"EARTH","COUNTRY_CODE":"US","REV_AT_EPOCH":"130","APOAPSIS":"474.121","ECCENTRICITY":"0.00014030","MEAN_ELEMENT_THEORY":"SGP4","NORAD_CAT_ID":"53542","ELEMENT_SET_NO":"999","FILE":"3617955","TLE_LINE1":"1 53542U 22101R   22289.91667824 -.01065212  00000-0 -38380-1 0  9993","SITE":"AFETR","SEMIMAJOR_AXIS":"6851.294","CLASSIFICATION_TYPE":"U"}];
